{"fetched_at":"2026-03-29T16:36:15Z","count":15609,"tles":[{"name":"KUIPER-00223","line1":"1 67783U 26030V   26087.80412392  .00025382  00000+0  74988-3 0  9992","line2":"2 67783  51.8817 127.4367 0012766 121.4723 238.7513 15.34715774  8028","category":"Other"}]}